{
  "norad_id": 50501,
  "name": "ONEWEB-0430",
  "history": [
    {
      "epoch": "2026-03-28T17:54:39.428352Z",
      "apogee_km": 1191.2516474148706,
      "perigee_km": 1188.2379655218983,
      "latitude_deg": -2.9823340364546398e-05,
      "longitude_deg": -103.38059841614489,
      "height_km": 1192.2497154362504,
      "semi_major_axis_km": 7567.881806468384,
      "eccentricity": 0.00019911,
      "inclination_deg": 87.9239,
      "raan_deg": 351.446,
      "arg_perigee_deg": 74.9239,
      "mean_anomaly_deg": 285.2113,
      "mean_motion_rev_day": 13.18685561
    },
    {
      "epoch": "2026-03-29T04:50:13.740288Z",
      "apogee_km": 1191.2474321171258,
      "perigee_km": 1188.2354165042507,
      "latitude_deg": -1.2876689135364679e-05,
      "longitude_deg": 92.18751280124717,
      "height_km": 1192.2453982282639,
      "semi_major_axis_km": 7567.8784243106875,
      "eccentricity": 0.000199,
      "inclination_deg": 87.9238,
      "raan_deg": 351.3558,
      "arg_perigee_deg": 74.8785,
      "mean_anomaly_deg": 285.2567,
      "mean_motion_rev_day": 13.18686445
    },
    {
      "epoch": "2026-03-30T04:30:38.244096Z",
      "apogee_km": 1191.2386356482011,
      "perigee_km": 1188.2478093842637,
      "latitude_deg": -4.78917135361275e-05,
      "longitude_deg": 95.91777796046989,
      "height_km": 1192.2474893244746,
      "semi_major_axis_km": 7567.880222516233,
      "eccentricity": 0.0001976,
      "inclination_deg": 87.9238,
      "raan_deg": 351.1604,
      "arg_perigee_deg": 74.7792,
      "mean_anomaly_deg": 285.3558,
      "mean_motion_rev_day": 13.18685975
    },
    {
      "epoch": "2026-03-30T04:30:38.244960Z",
      "apogee_km": 1191.2389383634118,
      "perigee_km": 1188.247506669055,
      "latitude_deg": -5.234857771092511e-05,
      "longitude_deg": 95.91777418986001,
      "height_km": 1192.2474098372077,
      "semi_major_axis_km": 7567.880222516233,
      "eccentricity": 0.00019764,
      "inclination_deg": 87.9238,
      "raan_deg": 351.1604,
      "arg_perigee_deg": 74.7792,
      "mean_anomaly_deg": 285.3558,
      "mean_motion_rev_day": 13.18685975
    },
    {
      "epoch": "2026-03-30T09:58:25.390560Z",
      "apogee_km": 1191.230567585344,
      "perigee_km": 1188.2503374445432,
      "latitude_deg": 2.5741905042993287e-05,
      "longitude_deg": 13.701875889173088,
      "height_km": 1192.2470905947423,
      "semi_major_axis_km": 7567.877452514944,
      "eccentricity": 0.0001969,
      "inclination_deg": 87.9238,
      "raan_deg": 351.1153,
      "arg_perigee_deg": 74.8182,
      "mean_anomaly_deg": 285.3168,
      "mean_motion_rev_day": 13.18686699
    },
    {
      "epoch": "2026-03-30T19:04:44.078304Z",
      "apogee_km": 1191.2278671064814,
      "perigee_km": 1188.2573230078297,
      "latitude_deg": 1.5039192594700799e-05,
      "longitude_deg": -123.32512656714529,
      "height_km": 1192.246051686459,
      "semi_major_axis_km": 7567.879595057155,
      "eccentricity": 0.00019626,
      "inclination_deg": 87.9238,
      "raan_deg": 351.0401,
      "arg_perigee_deg": 74.6397,
      "mean_anomaly_deg": 285.4952,
      "mean_motion_rev_day": 13.18686139
    },
    {
      "epoch": "2026-03-31T11:28:05.642112Z",
      "apogee_km": 1191.218300513604,
      "perigee_km": 1188.2660708432704,
      "latitude_deg": 6.802327785959439e-07,
      "longitude_deg": -9.97346096729213,
      "height_km": 1192.2358604247033,
      "semi_major_axis_km": 7567.879185678436,
      "eccentricity": 0.00019505,
      "inclination_deg": 87.9236,
      "raan_deg": 350.9047,
      "arg_perigee_deg": 74.1466,
      "mean_anomaly_deg": 285.9881,
      "mean_motion_rev_day": 13.18686246
    },
    {
      "epoch": "2026-04-01T11:08:30.125184Z",
      "apogee_km": 1191.2035087088207,
      "perigee_km": 1188.28079378061,
      "latitude_deg": -5.586808775210026e-05,
      "longitude_deg": -6.243309265938874,
      "height_km": 1192.2332751990361,
      "semi_major_axis_km": 7567.879151244715,
      "eccentricity": 0.0001931,
      "inclination_deg": 87.9235,
      "raan_deg": 350.7091,
      "arg_perigee_deg": 73.8763,
      "mean_anomaly_deg": 286.2581,
      "mean_motion_rev_day": 13.18686255
    },
    {
      "epoch": "2026-04-02T10:48:54.648000Z",
      "apogee_km": 1191.1967512357242,
      "perigee_km": 1188.289020425991,
      "latitude_deg": -4.351888397531243e-05,
      "longitude_deg": -2.5133214627978537,
      "height_km": 1192.2353502488543,
      "semi_major_axis_km": 7567.879885830857,
      "eccentricity": 0.00019211,
      "inclination_deg": 87.9235,
      "raan_deg": 350.5135,
      "arg_perigee_deg": 73.8453,
      "mean_anomaly_deg": 286.289,
      "mean_motion_rev_day": 13.18686063
    },
    {
      "epoch": "2026-04-03T17:46:22.037376Z",
      "apogee_km": 1191.1727818158406,
      "perigee_km": 1188.31061009303,
      "latitude_deg": 2.2370580265470213e-05,
      "longitude_deg": -108.40452494834116,
      "height_km": 1192.2328191537667,
      "semi_major_axis_km": 7567.878695954435,
      "eccentricity": 0.0001891,
      "inclination_deg": 87.9232,
      "raan_deg": 350.2578,
      "arg_perigee_deg": 73.5231,
      "mean_anomaly_deg": 286.6109,
      "mean_motion_rev_day": 13.18686374
    },
    {
      "epoch": "2026-04-04T06:31:12.056448Z",
      "apogee_km": 1191.1613137304375,
      "perigee_km": 1188.315489864346,
      "latitude_deg": 2.6010046573407782e-05,
      "longitude_deg": 59.758252073183904,
      "height_km": 1192.2351956710586,
      "semi_major_axis_km": 7567.8754017973915,
      "eccentricity": 0.00018802,
      "inclination_deg": 87.9231,
      "raan_deg": 350.1525,
      "arg_perigee_deg": 73.6631,
      "mean_anomaly_deg": 286.4708,
      "mean_motion_rev_day": 13.18687235
    },
    {
      "epoch": "2026-04-05T09:50:07.970208Z",
      "apogee_km": 1191.1724793392696,
      "perigee_km": 1188.304859890538,
      "latitude_deg": -5.1824643813837004e-05,
      "longitude_deg": 8.6779648174233,
      "height_km": 1192.2367018444502,
      "semi_major_axis_km": 7567.875669614903,
      "eccentricity": 0.00018946,
      "inclination_deg": 87.923,
      "raan_deg": 349.927,
      "arg_perigee_deg": 73.8429,
      "mean_anomaly_deg": 286.2911,
      "mean_motion_rev_day": 13.18687165
    }
  ]
}